satname,norad_id,inclination_deg,eccentricity,mean_motion_rev_per_day,perigee_km,apogee_km,l1,l2
STARLINK-1540,46051,53.159,0.0001264,15.30192556,474.371029440631,476.10356246264746,1 46051U 20055AA  26111.85701034  .00005095  00000+0  18407-3 0  9998,2 46051  53.1590 273.3351 0001264  74.1809 285.9331 15.30192556315699
STARLINK-1541,46052,53.1663,0.00013,15.54435814,402.9114935435564,404.6747953811164,1 46052U 20055AB  26112.00002315  .00895337  00000+0  12340-1 0  9997,2 46052  53.1663 271.1989 0001300  71.1647 101.5379 15.54435814  5876
STARLINK-1543,46053,53.16,8.43e-05,15.31072711,472.0330314748053,473.18806751164993,1 46053U 20055AC  26111.91737949  .00160216  00000+0  51646-2 0  9999,2 46053  53.1600 273.1129 0000843  68.7805 291.3286 15.31072711315692
STARLINK-1548,46054,53.1588,0.0001032,15.30195373,474.5216174827983,475.93615220143056,1 46054U 20055AD  26111.72953270  .00000047  00000+0  13707-4 0  9999,2 46054  53.1588 273.9954 0001032  74.3922 285.7193 15.30195373315666
STARLINK-1554,46055,53.1615,0.0001185,15.31727154,469.8474694282977,471.470634092565,1 46055U 20055AE  26111.84756665 -.00008540  00000+0 -26353-3 0  9990,2 46055  53.1615 273.4579 0001185  84.6585 275.4552 15.31727154315680
STARLINK-1564,46058,53.1592,0.0001003,15.30213058,474.4886935602908,475.8634681643125,1 46058U 20055AH  26111.85601799 -.00004318  00000+0 -13369-3 0  9993,2 46058  53.1592 273.8652 0001003  77.9249 282.1864 15.30213058315676
STARLINK-1570,46059,53.1585,0.0001311,15.31704805,469.8277859118498,471.6235577043981,1 46059U 20055AJ  26111.74502702  .00002929  00000+0  10611-3 0  9997,2 46059  53.1585 273.8189 0001311  92.9767 267.1384 15.31704805315629
STARLINK-1572,46060,53.1585,0.0001393,15.3016143,474.37554692025424,476.28492289189853,1 46060U 20055AK  26111.83704101 -.00005648  00000+0 -17891-3 0  9996,2 46060  53.1585 273.7006 0001393  77.5540 282.5616 15.30161430315647
STARLINK-1573,46061,53.159,0.0001339,15.31716434,469.7739486947057,471.60806483491706,1 46061U 20055AL  26111.86153878  .00006548  00000+0  22246-3 0  9997,2 46061  53.1590 273.2466 0001339  86.4813 273.6341 15.31716434315682
STARLINK-1577,46063,53.1618,7.25e-05,15.31717583,470.19104193681324,471.18412150116274,1 46063U 20055AN  26111.82423466  .00004108  00000+0  14400-3 0  9991,2 46063  53.1618 273.4088 0000725  85.0828 275.0256 15.31717583315672
STARLINK-1583,46064,53.1577,0.0001121,15.30197271,474.45495605312135,475.99147941393676,1 46064U 20055AP  26111.86648143  .00003337  00000+0  12475-3 0  9990,2 46064  53.1577 273.3128 0001121  79.5921 280.5206 15.30197271315675
STARLINK-1536,46070,53.1482,6.01e-05,15.29368207,477.2877431705474,478.1118147513789,1 46070U 20055AV  26112.00002315 -.00010747  00000+0 -36051-3 0  9990,2 46070  53.1482 260.3557 0000601 110.0883 122.5930 15.29368207  5794
STARLINK-1542,46073,53.0725,9.8e-05,15.11577568,530.7112364702871,532.0655034427982,1 46073U 20055AY  26112.00002315  .00019136  00000+0  11290-2 0  9999,2 46073  53.0725 262.1195 0000980 131.1469 262.3761 15.11577568  5842
STARLINK-1549,46074,53.049,2.53e-05,15.25926082,487.8322807575787,488.17970759308355,1 46074U 20055AZ  26111.82925664  .00022599  00000+0  87986-3 0  9993,2 46074  53.0490 260.5990 0000253 352.3995   7.6998 15.25926082315830
STARLINK-1551,46075,53.157,0.0001836,15.29419472,476.28787291013487,478.8052799193929,1 46075U 20055BA  26111.84320242 -.00010453  00000+0 -34968-3 0  9997,2 46075  53.1570 260.5763 0001836  71.8084 288.3116 15.29419472315844
STARLINK-1552,46076,53.1603,9.68e-05,15.30187707,474.5883663138666,475.9151823805796,1 46076U 20055BB  26111.66785967 -.00000065  00000+0  99264-5 0  9996,2 46076  53.1603 261.3441 0000968  86.0519 274.0592 15.30187707315801
STARLINK-1559,46077,53.0242,8.8e-05,15.33918939,463.5313087442755,464.73554833969956,1 46077U 20055BC  26111.68750417  .00054826  00000+0  16467-2 0  9995,2 46077  53.0242 233.1061 0000880 258.0428 102.0474 15.33918939316170
STARLINK-1566,46079,53.1574,0.0001033,15.2936032,477.0151391989084,478.43155994713015,1 46079U 20055BE  26111.81665302  .00003003  00000+0  11635-3 0  9994,2 46079  53.1574 260.6547 0001033  74.9574 285.1541 15.29360320315844
STARLINK-1568,46080,53.0587,0.0003811,15.50103329,413.8346975050699,419.0135119791048,1 46080U 20055BF  26111.93660403  .00038162  00000+0  67166-3 0  9990,2 46080  53.0587 186.0422 0003811 304.6843  55.3806 15.50103329316895
STARLINK-1578,46082,53.1495,0.000117,15.29387333,476.8404947776644,478.44474720897597,1 46082U 20055BH  26112.00002315 -.00012402  00000+0 -41776-3 0  9993,2 46082  53.1495 260.2020 0001170  77.5787 256.8103 15.29387333  5791
STARLINK-1579,46083,53.1621,0.0001137,15.30195265,474.4499795745196,476.00843505006196,1 46083U 20055BJ  26111.67734957  .00004169  00000+0  15283-3 0  9993,2 46083  53.1621 261.3584 0001137  95.1755 264.9375 15.30195265315815
STARLINK-1593,46119,53.0355,0.0003581,15.97062426,280.18863540563143,284.9590365063423,1 46119U 20057C   26112.00002315  .00446463  93313-4  10091-2 0  9991,2 46119  53.0355  51.6733 0003581 127.1011 153.7561 15.97062426  5970
STARLINK-1621,46127,53.0352,0.0003791,16.06494059,253.9633139832349,258.99367945284575,1 46127U 20057L   26111.89588490  .01099927  69242-3  14361-2 0  9996,2 46127  53.0352  24.0203 0003791 179.2707 180.8331 16.06494059313953
STARLINK-1622,46128,53.0208,0.0001122,15.72260492,351.6829161333335,353.19325718278014,1 46128U 20057M   26111.90426286  .00095407  00000+0  70393-3 0  9992,2 46128  53.0208  10.9389 0001122  37.1740 322.9354 15.72260492314148
STARLINK-1623,46129,53.0468,0.0002098,15.6177035,381.1247979481868,383.96157935534484,1 46129U 20057N   26111.25158911  .00094737  00000+0  10684-2 0  9999,2 46129  53.0468  49.4981 0002098  41.6532 318.4641 15.61770350313554
STARLINK-1624,46130,53.0379,0.0007122,15.83506022,315.7639283810322,325.30551638239194,1 46130U 20057P   26112.00002315  .00195319  00000+0  85746-3 0  9991,2 46130  53.0379  16.5201 0007122 134.2609 268.4871 15.83506022  5941
STARLINK-1596,46141,53.0396,0.0001861,15.51755129,410.33793153351144,412.8650722039074,1 46141U 20057AA  26111.93076911  .00066725  00000+0  10980-2 0  9992,2 46141  53.0396  23.7773 0001861 123.8701 236.2485 15.51755129313975
STARLINK-1597,46142,53.045,0.0004879,15.65587876,368.2553941180877,374.8417372931026,1 46142U 20057AB  26111.22515765  .00088467  00000+0  85943-3 0  9999,2 46142  53.0450  89.3397 0004879  13.5193 346.5952 15.65587876312980
